H2SAT (HEINRICH HERTZ)  
1 57213U 23093A   26165.68239000  .00000009  00000+0  00000+0 0  9990
2 57213   0.0576 110.9536 0000860  82.8758 315.5159  1.00272092 10895
SYRACUSE 4B             
1 57214U 23093B   26165.75867705  .00000000  00000+0  00000+0 0  9999
2 57214   0.0244  14.3808 0000356 229.9544 285.4171  1.00270498  6942
JUPITER 3 (ECHOSTAR 24) 
1 57479U 23108A   26165.53443898  .00000000  00000+0  00000+0 0  9998
2 57479   0.0215 349.5710 0001368  91.8427 278.6019  1.00270365 10615
GALAXY 37 (G-37)        
1 57493U 23112A   26165.66358605  .00000055  00000+0  00000+0 0  9994
2 57493   0.0212  54.5917 0001704  26.2739 293.9827  1.00271135 10514
LUDI TANCE-4 01A        
1 57624U 23120A   26165.62389047 -.00000161  00000+0  00000+0 0  9998
2 57624  15.1051 194.0287 0000997  51.9451 331.2486  1.00269375 10528
TJS-10                  
1 58204U 23169A   26165.77476477 -.00000245  00000+0  00000+0 0  9999
2 58204   2.5382  80.5187 0003798 111.2555  82.5767  1.00275221  9517
ZHONGXING-6E            
1 58253U 23172A   26165.85417861 -.00000356  00000+0  00000+0 0  9991
2 58253   0.0339  85.7590 0002653 354.3420 246.0761  1.00272493  9633
YAOGAN-41               
1 58582U 23197A   26165.85565196 -.00000354  00000+0  00000+0 0  9996
2 58582   3.1330 313.1069 0013996 194.0396 187.2456  1.00271242  9307
OVZON-3                 
1 58698U 24003A   26165.90020581  .00000000  00000+0  00000+0 0  9998
2 58698   0.0128  26.6970 0000274 285.2695 334.9856  1.00272011  7424
INSAT-3DS               
1 58990U 24033A   26165.88362337 -.00000151  00000+0  00000+0 0  9999
2 58990   0.0430 121.4944 0000983 312.4807 229.4063  1.00271573 47047
MERAH PUTIH 2           
1 58995U 24035A   26165.84683888 -.00000352  00000+0  00000+0 0  9992
2 58995   0.0148  45.0544 0000869  53.4856 222.4223  1.00270853  8569
TJS-11                  
1 59020U 24037A   26165.91400193 -.00000357  00000+0  00000+0 0  9993
2 59020   4.2027 327.0574 0003095 103.9623 273.7833  1.00276161  8568
HULIANWAN GAOGUI-01 (H*)
1 59069U 24040A   26165.83792058  .00000162  00000+0  00000+0 0  9998
2 59069   0.0693 327.6740 0002683  69.5940 201.0934  1.00267731  7306
EUTELSAT 36D            
1 59346U 24059A   26165.83835391  .00000161  00000+0  00000+0 0  9993
2 59346   0.0186  34.4667 0000635 156.6287  49.7291  1.00271988  8122
PAKSAT-MM1              
1 59915U 24104A   26165.83887391  .00000159  00000+0  00000+0 0  9990
2 59915   0.0400  92.3124 0001757 338.7335 172.3082  1.00274623  7508
ASTRA 1P (SES-24)       
1 60086U 24115A   26165.77259103  .00000126  00000+0  00000+0 0  9994
2 60086   0.0593 357.4016 0000904 356.3080 206.6982  1.00269642  7171
GOES 19                 
1 60133U 24119A   26165.81642218 -.00000243  00000+0  00000+0 0  9990
2 60133   0.0120  97.6670 0000378  89.6211 294.5445  1.00272177  6947
ZHONGXING-3A            
1 60179U 24122A   26165.91448157 -.00000308  00000+0  00000+0 0  9993
2 60179   0.0430 116.7446 0001172   3.3202 213.9314  1.00267951  7283
TURKSAT 6A              
1 60233U 24127A   26165.83956726  .00000152  00000+0  00000+0 0  9992
2 60233   0.0523 196.1357 0001303 294.0673 117.1769  1.00268893  6999
HULIANWAN GAOGUI-02 (H*)
1 60327U 24135A   26165.79033539 -.00000168  00000+0  00000+0 0  9996
2 60327   0.0437 351.3350 0007351  14.6272 334.8115  1.00267463  7474
ZHONGXING-4A            
1 60606U 24151A   26165.88448708 -.00000356  00000+0  00000+0 0  9991
2 60606   1.3202 270.8663 0000136  65.9014   3.0171  1.00274697  6739
HULIANWAN GAOGUI-03 (H*)
1 61503U 24181A   26165.81598884 -.00000235  00000+0  00000+0 0  9991
2 61503   0.0459 354.1282 0000946  88.3272  37.2786  1.00269665  6801
DSN-3 (KIRAMEKI-3)      
1 61733U 24198A   26165.85981197 -.00000244  00000+0  00000+0 0  9991
2 61733   0.0170 344.8093 0000320 108.4261 263.5036  1.00272179  5894
KOREASAT 6A             
1 61910U 24206A   26165.85426528  .00000000  00000+0  00000+0 0  9999
2 61910   0.0172  24.3975 0000711  31.0579 271.2454  1.00269812  5811
OPTUS-X (ADS-01)        
1 62006U 24212A   26165.79094205 -.00000138  00000+0  00000+0 0  9992
2 62006   0.0158  15.0628 0001596 111.3625 217.7870  1.00269865  5736
GSAT-N2 (GSAT-20)       
1 62028U 24214A   26165.84473190 -.00000013  00000+0  00000+0 0  9990
2 62028   0.0413 122.8473 0001785 311.1724 201.1928  1.00269386  5873
SXM-9                   
1 62259U 24234A   26165.81434218 -.00000199  00000+0  00000+0 0  9998
2 62259   0.0159 328.4604 0005179 346.6966 155.9595  1.00270655  5550
TJS-12                  
1 62374U 24246A   26165.76364133 -.00000224  00000+0  00000+0 0  9990
2 62374   0.6760 298.9311 0002024  80.3201 305.2743  1.00270067  5549
NUVIEW ALPHA            
1 62455U 24252B   26165.45836999 -.00000208  00000+0  00000+0 0  9999
2 62455   0.0601  37.8288 0000846  11.3570 295.5086  1.00271605  3798
AGILA                   
1 62456U 24252C   26165.79007538 -.00000176  00000+0  00000+0 0  9990
2 62456   0.0645 124.7865 0000757 359.5870 215.2833  1.00270969  5136
NUVIEW BRAVO            
1 62457U 24252D   26165.52965862 -.00000208  00000+0  00000+0 0  9991
2 62457   0.0697 149.7979 0001816 333.3877 247.2040  1.00270308  3760
THURAYA-4               
1 62483U 25001A   26165.83991394  .00000145  00000+0  00000+0 0  9995
2 62483   0.0241  60.4600 0000255 207.0859 342.2669  1.00271978  4158
