OBJECT_NAME,OBJECT_ID,EPOCH,MEAN_MOTION,ECCENTRICITY,INCLINATION,RA_OF_ASC_NODE,ARG_OF_PERICENTER,MEAN_ANOMALY,EPHEMERIS_TYPE,CLASSIFICATION_TYPE,NORAD_CAT_ID,ELEMENT_SET_NO,REV_AT_EPOCH,BSTAR,MEAN_MOTION_DOT,MEAN_MOTION_DDOT
H2SAT (HEINRICH HERTZ),2023-093A,2026-06-14T16:22:38.496000,1.00272092,.000086,0.0576,110.9536,82.8758,315.5159,0,U,57213,999,1089,0,.9E-7,0
SYRACUSE 4B,2023-093B,2026-06-14T18:12:29.697120,1.00270498,.0000356,0.0244,14.3808,229.9544,285.4171,0,U,57214,999,694,0,0,0
JUPITER 3 (ECHOSTAR 24),2023-108A,2026-06-14T12:49:35.527872,1.00270365,.0001368,0.0215,349.5710,91.8427,278.6019,0,U,57479,999,1061,0,0,0
GALAXY 37 (G-37),2023-112A,2026-06-14T15:55:33.834720,1.00271135,.0001704,0.0212,54.5917,26.2739,293.9827,0,U,57493,999,1051,0,.55E-6,0
LUDI TANCE-4 01A,2023-120A,2026-06-14T14:58:24.136608,1.00269375,.0000997,15.1051,194.0287,51.9451,331.2486,0,U,57624,999,1052,0,-.161E-5,0
TJS-10,2023-169A,2026-06-14T18:35:39.676128,1.00275221,.0003798,2.5382,80.5187,111.2555,82.5767,0,U,58204,999,951,0,-.245E-5,0
ZHONGXING-6E,2023-172A,2026-06-14T20:30:01.031904,1.00272493,.0002653,0.0339,85.7590,354.3420,246.0761,0,U,58253,999,963,0,-.356E-5,0
YAOGAN-41,2023-197A,2026-06-14T20:32:08.329344,1.00271242,.0013996,3.1330,313.1069,194.0396,187.2456,0,U,58582,999,930,0,-.354E-5,0
OVZON-3,2024-003A,2026-06-14T21:36:17.781984,1.00272011,.0000274,0.0128,26.6970,285.2695,334.9856,0,U,58698,999,742,0,0,0
INSAT-3DS,2024-033A,2026-06-14T21:12:25.059168,1.00271573,.0000983,0.0430,121.4944,312.4807,229.4063,0,U,58990,999,4704,0,-.151E-5,0
MERAH PUTIH 2,2024-035A,2026-06-14T20:19:26.879232,1.00270853,.0000869,0.0148,45.0544,53.4856,222.4223,0,U,58995,999,856,0,-.352E-5,0
TJS-11,2024-037A,2026-06-14T21:56:09.766752,1.00276161,.0003095,4.2027,327.0574,103.9623,273.7833,0,U,59020,999,856,0,-.357E-5,0
HULIANWAN GAOGUI-01 (HG-01),2024-040A,2026-06-14T20:06:36.338112,1.00267731,.0002683,0.0693,327.6740,69.5940,201.0934,0,U,59069,999,730,0,.162E-5,0
EUTELSAT 36D,2024-059A,2026-06-14T20:07:13.777824,1.00271988,.0000635,0.0186,34.4667,156.6287,49.7291,0,U,59346,999,812,0,.161E-5,0
PAKSAT-MM1,2024-104A,2026-06-14T20:07:58.705824,1.00274623,.0001757,0.0400,92.3124,338.7335,172.3082,0,U,59915,999,750,0,.159E-5,0
ASTRA 1P (SES-24),2024-115A,2026-06-14T18:32:31.864992,1.00269642,.0000904,0.0593,357.4016,356.3080,206.6982,0,U,60086,999,717,0,.126E-5,0
GOES 19,2024-119A,2026-06-14T19:35:38.876352,1.00272177,.0000378,0.0120,97.6670,89.6211,294.5445,0,U,60133,999,694,0,-.243E-5,0
ZHONGXING-3A,2024-122A,2026-06-14T21:56:51.207648,1.00267951,.0001172,0.0430,116.7446,3.3202,213.9314,0,U,60179,999,728,0,-.308E-5,0
TURKSAT 6A,2024-127A,2026-06-14T20:08:58.611264,1.00268893,.0001303,0.0523,196.1357,294.0673,117.1769,0,U,60233,999,699,0,.152E-5,0
HULIANWAN GAOGUI-02 (HG-02),2024-135A,2026-06-14T18:58:04.977696,1.00267463,.0007351,0.0437,351.3350,14.6272,334.8115,0,U,60327,999,747,0,-.168E-5,0
ZHONGXING-4A,2024-151A,2026-06-14T21:13:39.683712,1.00274697,.0000136,1.3202,270.8663,65.9014,3.0171,0,U,60606,999,673,0,-.356E-5,0
HULIANWAN GAOGUI-03 (HG-03),2024-181A,2026-06-14T19:35:01.435776,1.00269665,.0000946,0.0459,354.1282,88.3272,37.2786,0,U,61503,999,680,0,-.235E-5,0
DSN-3 (KIRAMEKI-3),2024-198A,2026-06-14T20:38:07.754208,1.00272179,.000032,0.0170,344.8093,108.4261,263.5036,0,U,61733,999,589,0,-.244E-5,0
KOREASAT 6A,2024-206A,2026-06-14T20:30:08.520192,1.00269812,.0000711,0.0172,24.3975,31.0579,271.2454,0,U,61910,999,581,0,0,0
OPTUS-X (ADS-01),2024-212A,2026-06-14T18:58:57.393120,1.00269865,.0001596,0.0158,15.0628,111.3625,217.7870,0,U,62006,999,573,0,-.138E-5,0
GSAT-N2 (GSAT-20),2024-214A,2026-06-14T20:16:24.836160,1.00269386,.0001785,0.0413,122.8473,311.1724,201.1928,0,U,62028,999,587,0,-.13E-6,0
SXM-9,2024-234A,2026-06-14T19:32:39.164352,1.00270655,.0005179,0.0159,328.4604,346.6966,155.9595,0,U,62259,999,555,0,-.199E-5,0
TJS-12,2024-246A,2026-06-14T18:19:38.610912,1.00270067,.0002024,0.6760,298.9311,80.3201,305.2743,0,U,62374,999,554,0,-.224E-5,0
NUVIEW ALPHA,2024-252B,2026-06-14T11:00:03.167136,1.00271605,.00008468,0.0601,37.8288,11.3570,295.5086,0,U,62455,999,379,0,-.208E-5,0
AGILA,2024-252C,2026-06-14T18:57:42.512832,1.00270969,.0000757,0.0645,124.7865,359.5870,215.2833,0,U,62456,999,513,0,-.176E-5,0
NUVIEW BRAVO,2024-252D,2026-06-14T12:42:42.504768,1.00270308,.0001816,0.0697,149.7979,333.3877,247.2040,0,U,62457,999,376,0,-.208E-5,0
THURAYA-4,2025-001A,2026-06-14T20:09:28.564416,1.00271978,.0000255,0.0241,60.4600,207.0859,342.2669,0,U,62483,999,415,0,.145E-5,0
